BEIDOU 3 (C01)          
1 36287U 10001A   22023.35937176 -.00000270  00000+0  00000+0 0  9996
2 36287   1.8348  46.2392 0001431  41.6806 304.5277  1.00269639 44059
BEIDOU 5 (C06)          
1 36828U 10036A   22023.35283039 -.00000078  00000+0  00000+0 0  9993
2 36828  54.1888 177.5610 0027184 178.1402   1.3480  1.00288620 42127
BEIDOU 6 (C04)          
1 37210U 10057A   22023.40608841 -.00000100  00000+0  00000+0 0  9996
2 37210   0.9063  51.0140 0005743 166.5253 211.3675  1.00273338 41187
BEIDOU 7 (C07)          
1 37256U 10068A   22022.84048201 -.00000181  00000+0  00000+0 0  9992
2 37256  50.4704 291.3901 0017790 188.7179  50.8575  1.00296342 40680
BEIDOU 8 (C08)          
1 37384U 11013A   22023.47751057 -.00000164  00000+0  00000+0 0  9996
2 37384  60.0879  55.7008 0021200 193.1738 152.5052  1.00293904 39560
BEIDOU 9 (C09)          
1 37763U 11038A   22023.11863964 -.00000029  00000+0  00000+0 0  9996
2 37763  54.4745 180.0373 0087422 225.2067 214.8753  1.00264657 38547
BEIDOU 10 (C10)         
1 37948U 11073A   22022.83705031 -.00000135  00000+0  00000+0 0  9996
2 37948  50.5835 291.0211 0078060 219.2978   8.2082  1.00285759 37292
BEIDOU 11 (C05)         
1 38091U 12008A   22023.55840392  .00000067  00000+0  00000+0 0  9998
2 38091   2.0406  71.8733 0007174 274.8208  35.9694  1.00275556 36370
BEIDOU 12 (C11)         
1 38250U 12018A   22023.44222233 -.00000061  00000+0  00000+0 0  9997
2 38250  56.7285 358.3482 0024556 254.7553 292.1725  1.86234382 66387
BEIDOU 13 (C12)         
1 38251U 12018B   22023.10480304 -.00000062  00000+0  00000+0 0  9997
2 38251  56.6488 357.6943 0015542 259.7850 105.1960  1.86234197 66384
BEIDOU 15 (C14)         
1 38775U 12050B   22022.79151411  .00000009  00000+0  00000+0 0  9992
2 38775  55.3182 116.5912 0012221 321.8916  29.8939  1.86231200 63742
BEIDOU 16 (C02)         
1 38953U 12059A   22023.56346258 -.00000164  00000+0  00000+0 0  9993
2 38953   1.6313  84.5522 0012327 278.1483  47.0223  1.00269934 33949
BEIDOU 17 (C31)         
1 40549U 15019A   22023.47957654 -.00000175  00000+0  00000+0 0  9996
2 40549  52.1340 314.4400 0035595 190.7754 246.5104  1.00273587 24983
BEIDOU 18 (C57)         
1 40748U 15037A   22023.49609134 -.00000063  00000+0  00000+0 0  9992
2 40748  55.9045 356.6352 0004434 336.7808 200.1950  1.86233298 44213
BEIDOU 19 (C58)         
1 40749U 15037B   22023.07250088 -.00000063  00000+0  00000+0 0  9997
2 40749  55.9075 356.6391 0006916 308.5812  79.5129  1.86232150 44200
BEIDOU 20 (C18)         
1 40938U 15053A   22023.11099382 -.00000111  00000+0  00000+0 0  9992
2 40938  51.7241 277.5460 0042746 194.1637 146.8028  1.00279138 23242
BEIDOU IGSO-6 (C13)     
1 41434U 16021A   22023.47560086 -.00000139  00000+0  00000+0 0  9993
2 41434  57.8864  54.3408 0045075 217.4419 117.8884  1.00270074 21370
BEIDOU-2 G7 (C03)       
1 41586U 16037A   22023.56785722 -.00000343  00000+0  00000+0 0  9991
2 41586   1.6551  67.1869 0008158 359.9955  10.5634  1.00277232 20698
BEIDOU-3 M1 (C19)       
1 43001U 17069A   22023.10805028  .00000008  00000+0  00000+0 0  9990
2 43001  55.4719 116.5611 0008922 283.9404  76.2175  1.86231597 28698
BEIDOU-3 M2 (C20)       
1 43002U 17069B   22023.57645810  .00000005  00000+0  00000+0 0  9990
2 43002  55.4715 116.5815 0006982 308.4345  48.9578  1.86231370 28683
BEIDOU-3 M3 (C27)       
1 43107U 18003A   22022.79285639 -.00000065  00000+0  00000+0 0  9994
2 43107  55.3519 357.6405 0003941  35.7575 322.2591  1.86232434 27437
BEIDOU-3 M4 (C28)       
1 43108U 18003B   22023.52622139 -.00000064  00000+0  00000+0 0  9996
2 43108  55.3461 357.6061 0004072 262.9235 271.4829  1.86230924 27458
BEIDOU-3 M5 (C21)       
1 43207U 18018A   22023.17555052  .00000007  00000+0  00000+0 0  9998
2 43207  55.4309 116.6774 0004348 333.9187  26.0899  1.86231522 26832
BEIDOU-3 M6 (C22)       
1 43208U 18018B   22022.70528789  .00000009  00000+0  00000+0 0  9996
2 43208  55.4301 116.6986 0006945 294.2177  65.7400  1.86231657 26829
BEIDOU-3 M7 (C29)       
1 43245U 18029A   22023.24680346 -.00000065  00000+0  00000+0 0  9990
2 43245  55.2733 355.4038 0001518 298.2955 274.4087  1.86232571 25989
BEIDOU-3 M8 (C30)       
1 43246U 18029B   22023.17926448 -.00000065  00000+0  10000-3 0  9994
2 43246  55.2709 355.4370 0004742 339.5875 234.2493  1.86232785 25975
BEIDOU IGSO-7 (C16)     
1 43539U 18057A   22023.35317927 -.00000080  00000+0  00000+0 0  9998
2 43539  55.0682 176.9889 0040655 220.5561 323.6086  1.00254311 13055
BEIDOU-3 M9 (C23)       
1 43581U 18062A   22023.61346528  .00000087  00000+0  00000+0 0  9995
2 43581  54.3213 237.0463 0002676 322.1421  33.4036  1.86231938 23726
BEIDOU-3 M10 (C24)      
1 43582U 18062B   22023.26548111  .00000085  00000+0  00000+0 0  9997
2 43582  54.3208 237.0487 0006899  17.0686 196.8162  1.86232345 23728
BEIDOU-3 M11 (C25)      
1 43602U 18067A   22023.14987572  .00000086  00000+0  00000+0 0  9991
2 43602  54.4005 235.6545 0007984  11.6725 166.3685  1.86231605 23210
BEIDOU-3 M12 (C26)      
1 43603U 18067B   22023.34066034  .00000087  00000+0  00000+0 0  9996
2 43603  54.3975 235.6143 0004995   6.7558 209.6053  1.86231564 23234
BEIDOU-3 M13 (C32)      
1 43622U 18072A   22023.51772895  .00000005  00000+0  00000+0 0  9991
2 43622  55.3974 116.2266 0005708 275.3775  89.4304  1.86231434 22758
BEIDOU-3 M14 (C33)      
1 43623U 18072B   22023.38083988  .00000006  00000+0  00000+0 0  9996
2 43623  55.3985 116.2233 0003405 302.6699  60.5940  1.86231431 22759
BEIDOU-3 M15 (C34)      
1 43647U 18078A   22022.83631155 -.00000065  00000+0  10000-3 0  9993
2 43647  55.1682 355.5893 0007282 349.6678 263.8779  1.86232989 22243
BEIDOU-3 M16 (C35)      
1 43648U 18078B   22023.34171956 -.00000065  00000+0  00000+0 0  9994
2 43648  55.1635 355.5786 0004758 354.4357 146.0158  1.86232249 22271
BEIDOU-3 G1 (C59)       
1 43683U 18085A   22023.58591028 -.00000266  00000+0  00000+0 0  9996
2 43683   0.8429 192.5829 0002470  31.1967 250.0732  1.00271884 11951
BEIDOU-3 M17 (C36)      
1 43706U 18093A   22022.74769283  .00000082  00000+0  00000+0 0  9993
2 43706  54.4032 236.9503 0007497 286.8765  73.0976  1.86231823 21624
BEIDOU-3 M18 (C37)      
1 43707U 18093B   22023.04001295  .00000084  00000+0  00000+0 0  9992
2 43707  54.4033 236.9319 0007604 317.8849 329.1535  1.86232196 21618
BEIDOU-3 IGSO-1 (C38)   
1 44204U 19023A   22023.49778720 -.00000199  00000+0  00000+0 0  9990
2 44204  56.3439  54.5351 0022520 195.2434 168.6882  1.00254628 10264
BEIDOU-2 G8             
1 44231U 19027A   22023.49934140 -.00000235  00000+0  00000+0 0  9995
2 44231   0.5271  66.4123 0006251 149.8293 230.7999  1.00276030  9976
BEIDOU-3 IGSO-2 (C39)   
1 44337U 19035A   22023.44037124 -.00000090  00000+0  00000+0 0  9991
2 44337  55.1111 173.0172 0021993 186.8210  37.3533  1.00297636  9599
BEIDOU-3 M23 (C45)      
1 44542U 19061A   22021.60909454  .00000078  00000+0  00000+0 0  9993
2 44542  54.6292 237.1021 0008830 352.5851   7.4636  1.86231461 15850
BEIDOU-3 M24 (C46)      
1 44543U 19061B   22023.12356366  .00000084  00000+0  00000+0 0  9998
2 44543  54.6262 237.0206 0005864 349.2446 217.3027  1.86231954 15874
BEIDOU-3 IGSO-3         
1 44709U 19073A   22022.72984166 -.00000172  00000+0  00000+0 0  9994
2 44709  57.5014 297.8976 0017747 183.7470  19.7153  1.00251354  8344
BEIDOU-3 M21            
1 44793U 19078A   22023.20795867 -.00000065  00000+0  10000-3 0  9990
2 44793  55.0167 355.6159 0006790 356.2976 100.5458  1.86232256 14741
BEIDOU-3 M22            
1 44794U 19078B   22023.31015411 -.00000065  00000+0  00000+0 0  9998
2 44794  54.9908 355.6071 0004785 347.7708  88.9756  1.86232765 14741
BEIDOU-3 M19            
1 44864U 19090A   22023.44937196  .00000005  00000+0  00000+0 0  9990
2 44864  55.3319 116.4481 0016127 264.2789 100.3447  1.86231759 14336
BEIDOU-3 M20            
1 44865U 19090B   22023.31350767  .00000006  00000+0  00000+0 0  9991
2 44865  55.3342 116.4846 0014204 278.8268  84.5952  1.86231710 14303
BEIDOU-3 G2             
1 45344U 20017A   22023.49080976 -.00000127  00000+0  00000+0 0  9991
2 45344   2.1807 345.2041 0000782  47.4568 346.8521  1.00270244  7163
BEIDOU-3 G3             
1 45807U 20040A   22023.56869567 -.00000340  00000+0  00000+0 0  9997
2 45807   1.7732 300.1510 0009374 350.3027 147.5250  1.00265237  5981
